{"type":"FeatureCollection","features":[{"type":"Feature","geometry":{"type":"Polygon","coordinates":[[[15.54418668100007,48.90261173300006],[15.681347290000076,48.85846588200006],[15.818496541000059,48.87231516500002],[16.032333618000052,48.75805857400006],[16.358308553000114,48.72725942000001],[16.435719848000048,48.79454213500007],[16.643149047000122,48.77826405900005],[16.661959269000135,48.74002349900006],[16.87300581900007,48.71899119100006],[16.945042766000142,48.60416615800007],[16.949054878579773,48.544836083118696],[16.860810181000147,48.443788351000094],[16.84448042800011,48.365601909000034],[16.950623820000146,48.27658925400006],[16.98193973800008,48.16129913400003],[17.06245242693791,48.11272247985852],[16.704489779879395,48.009162910340024],[16.573231641726863,47.919762681702366],[16.43928633019999,47.9280825869418],[16.289734735169873,47.79362051057808],[16.289269647176468,47.73253896729949],[16.3758276710102,47.644895737848],[16.321205681896686,47.571670234393764],[16.324461296951256,47.50133860898961],[16.23087527817154,47.44552806326948],[16.147882927754893,47.44304759457083],[16.08039350805393,47.51653148044346],[15.916682570344335,47.53322296776571],[15.743204786571653,47.63673086223946],[15.726099888099327,47.690241808212875],[15.339146763012707,47.82534983972329],[15.187063023339817,47.78044301982948],[14.883360630188918,47.72473582599753],[14.699340854896548,47.76891917637886],[14.750707228056115,47.90190847439658],[14.445351190305189,48.0429592961346],[14.484883660752303,48.21837494624674],[14.565033807264399,48.2442390004295],[14.67546634299731,48.1824856635825],[14.968575066885819,48.24744293954001],[14.975396356256795,48.33363922816784],[14.906356642045353,48.5270641143174],[14.691140438980085,48.586534962818234],[14.70383589700009,48.673102519000096],[14.800367472000119,48.77650706000007],[14.91932662000005,48.76157257100003],[14.968212524000108,48.88502756800007],[14.982061808000083,49.00791412400007],[15.262871542000084,48.98259267200008],[15.54418668100007,48.90261173300006]],[[16.4825911796392,48.28852570269902],[16.446417677034162,48.32805817314613],[16.188242222300687,48.23005381932825],[16.23263227735771,48.14915436488201],[16.571371290652507,48.153081773504994],[16.556126743254595,48.24904490819591],[16.4825911796392,48.28852570269902]]]},"properties":{"name":"Niederösterreich"}},{"type":"Feature","geometry":{"type":"Polygon","coordinates":[[[14.691140438980085,48.586534962818234],[14.906356642045353,48.5270641143174],[14.975396356256795,48.33363922816784],[14.968575066885819,48.24744293954001],[14.67546634299731,48.1824856635825],[14.565033807264399,48.2442390004295],[14.484883660752303,48.21837494624674],[14.445351190305189,48.0429592961346],[14.750707228056115,47.90190847439658],[14.699340854896548,47.76891917637886],[14.491549919593126,47.695435288707586],[14.3472693212222,47.62567210498361],[14.195030551918421,47.65771149429003],[14.059741652355342,47.62603384108888],[13.996748081159012,47.69858755097465],[13.82327029828565,47.720498359012026],[13.68715457462389,47.66396434198077],[13.730304396230906,47.54603872330841],[13.674442172768067,47.474208482035806],[13.58178632997516,47.48640411995416],[13.4888721047638,47.5357551133078],[13.489027134394746,47.64148509406181],[13.525614048149805,47.71750112637585],[13.497553745209132,47.79790965440702],[13.316789584971332,47.82503978136077],[13.271314325195931,47.912217922818854],[13.302940300654313,48.009938055796624],[13.138919304582203,47.98717458793686],[12.968387079300271,48.03164215825899],[12.84824627100005,47.98238892000002],[12.745040731000074,48.12062978200008],[12.877642456000103,48.202046001],[13.032775106000145,48.26356679300001],[13.274207397000055,48.307104187000036],[13.405568888000062,48.37658315100002],[13.456418498000062,48.506652731000074],[13.520703979000132,48.58458079100005],[13.71433557100005,48.52321502700006],[13.802392211000068,48.6117109180001],[13.815724731000074,48.766430156000055],[13.98232954900007,48.70648549400006],[14.074830363000075,48.59171213900008],[14.31574589000013,48.557915752],[14.443593384000081,48.63651560500004],[14.691140438980085,48.586534962818234]]]},"properties":{"name":"Oberösterreich"}},{"type":"Feature","geometry":{"type":"Polygon","coordinates":[[[17.148337850000075,48.005443013999994],[17.096144653000096,47.96193145800005],[17.03950728300012,47.83736541800003],[17.054803508000077,47.70202484200006],[16.79745487400004,47.67546315600002],[16.716783022904956,47.69701960267041],[16.60976607300006,47.75062652600006],[16.40781457500009,47.66132965100009],[16.55775284790631,47.62983988706746],[16.630229940000106,47.62200388600009],[16.68800419100009,47.5226301070001],[16.626973416689793,47.44554893473554],[16.42497115000012,47.35111602799999],[16.469206177000046,47.29323842400008],[16.41277551200011,47.18717254600004],[16.50951379300011,47.13753733400007],[16.43716678800004,47.03178151500005],[16.274902791000073,47.00431549100007],[16.230667765000135,46.948349915000065],[16.09403527800012,46.862773743000005],[16.05293554583875,46.84605985248021],[16.028440945000114,46.83694743300002],[16.018640171206926,46.92284678814872],[16.13625573061745,47.02490774179881],[16.089540235593404,47.082940374698524],[16.094966260984165,47.16513174123685],[16.020035435187197,47.372405910804105],[16.147882927754893,47.44304759457083],[16.23087527817154,47.44552806326948],[16.324461296951256,47.50133860898961],[16.321205681896686,47.571670234393764],[16.3758276710102,47.644895737848],[16.289269647176468,47.73253896729949],[16.289734735169873,47.79362051057808],[16.43928633019999,47.9280825869418],[16.573231641726863,47.919762681702366],[16.704489779879395,48.009162910340024],[17.06245242693791,48.11272247985852],[17.069686320000102,48.0356737260001],[17.148337850000075,48.005443013999994]]]},"properties":{"name":"Burgenland"}},{"type":"Feature","geometry":{"type":"Polygon","coordinates":[[[9.581202840000032,47.05687042300006],[9.588252960082398,47.06297656631186],[9.605130657392339,47.07759442208504],[9.614160036831384,47.11069857291066],[9.609508497359142,47.12241048432865],[9.567114250315864,47.1608249550482],[9.552057332000118,47.16688954700005],[9.551953979000103,47.175571188000006],[9.561875854000078,47.19060902900007],[9.554331095000123,47.211615499000104],[9.543132148856643,47.23481658408042],[9.534181546332288,47.2511758786833],[9.52115482500011,47.2628010050001],[9.649519084000104,47.409717103000034],[9.553058590581486,47.516891337864934],[9.547481674000068,47.53454710200005],[9.554143851957178,47.532743111105674],[9.81312666900007,47.54175038699999],[9.948725626000083,47.524232077000036],[10.071818888000053,47.43912099300012],[10.073162475000117,47.36548207600002],[10.190881388000093,47.37922800800003],[10.17495084980186,47.272375554388304],[10.202147657888077,47.16099762613953],[10.13822391070488,47.07733348215447],[10.125187508000124,46.846751229000105],[9.86242598400014,46.93977162700013],[9.857981812000048,47.01547760000001],[9.581202840000032,47.05687042300006]]]},"properties":{"name":"Vorarlberg"}},{"type":"Feature","geometry":{"type":"MultiPolygon","coordinates":[[[[10.125187508000124,46.846751229000105],[10.13822391070488,47.07733348215447],[10.202147657888077,47.16099762613953],[10.17495084980186,47.272375554388304],[10.305913126000064,47.30217844700009],[10.451950724000113,47.438759257000115],[10.430970093000042,47.542163798000004],[10.525124552000108,47.52846954400009],[10.607910197000109,47.562265930000066],[10.79032800300007,47.51606720000002],[11.083746785000102,47.38951161800013],[11.168599487000051,47.42426401800007],[11.25882653800005,47.40072540300007],[11.412615600000038,47.506093648000004],[11.551211792000089,47.51369008400006],[11.620458211000113,47.58965444000002],[11.820342651000118,47.575288391000115],[11.935891154000018,47.61073842400005],[12.165644572000133,47.60396881100009],[12.202334839000116,47.67778859500005],[12.424130086000076,47.691560365],[12.496580444000074,47.62890269000006],[12.563374919000069,47.641761370000054],[12.657605015259207,47.57079173435102],[12.678844027929529,47.498858141190226],[12.613835076927217,47.419638169765676],[12.50180057073976,47.38522166634681],[12.457410515682739,47.3334418811379],[12.315455357278893,47.33282176441287],[12.096037224838028,47.27990509674282],[12.084254998069696,47.17639720316839],[12.133146313751354,47.07883160609373],[11.943642618000126,47.038163555000054],[11.746445353000041,46.97245697100003],[11.596480347000096,47.0004397580001],[11.31381026200009,46.98726226800004],[11.1566105550001,46.95651479100009],[11.091911662000115,46.912434795000095],[10.996930379000105,46.76911021000005],[10.754774618000113,46.790762634000046],[10.662480509000119,46.86096506800003],[10.527708374000099,46.84321421300008],[10.453811076000136,46.864427389000056],[10.458461955000104,46.936619365000084],[10.367924846000108,46.995504659000076],[10.125187508000124,46.846751229000105]]],[[[12.469632061270602,46.67579888071373],[12.370386596000088,46.71115509000002],[12.26910078900005,46.788566387000046],[12.266620320000072,46.868148092000084],[12.195100138000043,46.88008534800012],[12.111177612000063,46.9929983520001],[12.203896989000043,47.067011988000004],[12.3799992202878,47.14415110918634],[12.577661574322178,47.14422862445144],[12.633833856147533,47.112034207312774],[12.744318067824565,47.05803233492429],[12.735016309754883,47.00421133148774],[12.828757358165547,46.875976264393046],[12.945287712857635,46.775181383513996],[12.72431928860425,46.74885224133783],[12.671367649897093,46.65246576338427],[12.469632061270602,46.67579888071373]]]]},"properties":{"name":"Tirol"}},{"type":"Feature","geometry":{"type":"Polygon","coordinates":[[[12.203896989000043,47.067011988000004],[12.133146313751354,47.07883160609373],[12.084254998069696,47.17639720316839],[12.096037224838028,47.27990509674282],[12.315455357278893,47.33282176441287],[12.457410515682739,47.3334418811379],[12.50180057073976,47.38522166634681],[12.613835076927217,47.419638169765676],[12.678844027929529,47.498858141190226],[12.657605015259207,47.57079173435102],[12.563374919000069,47.641761370000054],[12.744834025000017,47.66536041300007],[12.778940470000094,47.55482452400004],[12.942548055000145,47.47048858700005],[13.03732263100008,47.49304535000006],[13.074839722000092,47.64665354500001],[13.044557332000068,47.69657297800005],[12.892008504000103,47.723548076],[12.99122725400008,47.84710642600005],[12.84824627100005,47.98238892000002],[12.968387079300271,48.03164215825899],[13.138919304582203,47.98717458793686],[13.302940300654313,48.009938055796624],[13.271314325195931,47.912217922818854],[13.316789584971332,47.82503978136077],[13.497553745209132,47.79790965440702],[13.525614048149805,47.71750112637585],[13.489027134394746,47.64148509406181],[13.4888721047638,47.5357551133078],[13.58178632997516,47.48640411995416],[13.56519819544036,47.44542471048197],[13.630672235335396,47.30563995971636],[13.694130893625811,47.27447907225138],[13.796708612112752,47.30212596314266],[13.937165154648142,47.150558987407294],[13.782290887014824,46.95418854456568],[13.606177605811865,47.044208889028994],[13.308211297313505,47.087203681005064],[13.173542515374777,47.037490953344786],[13.059492629381339,47.028783474477734],[12.914385206911732,47.07596405749524],[12.633833856147533,47.112034207312774],[12.577661574322178,47.14422862445144],[12.3799992202878,47.14415110918634],[12.203896989000043,47.067011988000004]]]},"properties":{"name":"Salzburg"}},{"type":"Feature","geometry":{"type":"Polygon","coordinates":[[[12.671367649897093,46.65246576338427],[12.72431928860425,46.74885224133783],[12.945287712857635,46.775181383513996],[12.828757358165547,46.875976264393046],[12.735016309754883,47.00421133148774],[12.744318067824565,47.05803233492429],[12.633833856147533,47.112034207312774],[12.914385206911732,47.07596405749524],[13.059492629381339,47.028783474477734],[13.173542515374777,47.037490953344786],[13.308211297313505,47.087203681005064],[13.606177605811865,47.044208889028994],[13.782290887014824,46.95418854456568],[13.84388919423094,46.92269175941715],[14.026668735173985,47.01754385006859],[14.200611606940072,47.05671458620918],[14.394604932971276,46.998165188472626],[14.84987430185754,47.04131500918032],[15.008314242907943,46.911245429432995],[14.986868523763349,46.84220571612087],[15.03466922440515,46.703299466297324],[15.105591441791603,46.646322596110906],[15.085722503990326,46.647795166713536],[14.919506769000122,46.6150167520001],[14.894062721717205,46.60521546132446],[14.814519309000076,46.55133747600003],[14.796662503671598,46.51940094749568],[14.672545839618806,46.45979050622685],[14.562108198000118,46.39173666600003],[14.437144751628978,46.418884133396034],[14.242323221939102,46.438237461989274],[14.147933084000044,46.44042465400007],[14.014921608945087,46.48253065196798],[13.890862264000106,46.51178741500006],[13.700951375000102,46.51974558600001],[13.478019246000116,46.56356720000012],[13.231109253000056,46.55217254700001],[13.064504435000089,46.59803538000007],[12.830410197000077,46.60963674000003],[12.74849856365779,46.6410000853856],[12.671367649897093,46.65246576338427]]]},"properties":{"name":"Kärnten"}},{"type":"Feature","geometry":{"type":"Polygon","coordinates":[[[16.028440945000114,46.83694743300002],[15.97098466500006,46.77504987900009],[16.01672257900006,46.67069134200001],[15.967600178096905,46.694554607004314],[15.784609909919368,46.71219950350428],[15.621745271000123,46.67817491800007],[15.52030813761047,46.647720171348794],[15.513939450000123,46.63254522100003],[15.435380874000089,46.62719528700005],[15.332783733982126,46.64357967556157],[15.172556750993238,46.64135951293116],[15.105591441791603,46.646322596110906],[15.03466922440515,46.703299466297324],[14.986868523763349,46.84220571612087],[15.008314242907943,46.911245429432995],[14.84987430185754,47.04131500918032],[14.394604932971276,46.998165188472626],[14.200611606940072,47.05671458620918],[14.026668735173985,47.01754385006859],[13.84388919423094,46.92269175941715],[13.782290887014824,46.95418854456568],[13.937165154648142,47.150558987407294],[13.796708612112752,47.30212596314266],[13.694130893625811,47.27447907225138],[13.630672235335396,47.30563995971636],[13.56519819544036,47.44542471048197],[13.58178632997516,47.48640411995416],[13.674442172768067,47.474208482035806],[13.730304396230906,47.54603872330841],[13.68715457462389,47.66396434198077],[13.82327029828565,47.720498359012026],[13.996748081159012,47.69858755097465],[14.059741652355342,47.62603384108888],[14.195030551918421,47.65771149429003],[14.3472693212222,47.62567210498361],[14.491549919593126,47.695435288707586],[14.699340854896548,47.76891917637886],[14.883360630188918,47.72473582599753],[15.187063023339817,47.78044301982948],[15.339146763012707,47.82534983972329],[15.726099888099327,47.690241808212875],[15.743204786571653,47.63673086223946],[15.916682570344335,47.53322296776571],[16.08039350805393,47.51653148044346],[16.147882927754893,47.44304759457083],[16.020035435187197,47.372405910804105],[16.094966260984165,47.16513174123685],[16.089540235593404,47.082940374698524],[16.13625573061745,47.02490774179881],[16.018640171206926,46.92284678814872],[16.028440945000114,46.83694743300002]]]},"properties":{"name":"Steiermark"}},{"type":"Feature","geometry":{"type":"Polygon","coordinates":[[[16.4825911796392,48.28852570269902],[16.556126743254595,48.24904490819591],[16.571371290652507,48.153081773504994],[16.23263227735771,48.14915436488201],[16.188242222300687,48.23005381932825],[16.446417677034162,48.32805817314613],[16.4825911796392,48.28852570269902]]]},"properties":{"name":"Wien"}}]}