{"type":"FeatureCollection","features":[{"type":"Feature","geometry":{"type":"Polygon","coordinates":[[[7.022082560000115,45.92525990899999],[7.066937703000093,45.89022328800006],[7.183726440000044,45.880456442000096],[7.286665893000105,45.91342600500006],[7.361803426000108,45.90784495100006],[7.541120646000138,45.98411936500007],[7.643026571000121,45.96634267200004],[7.693979533000061,45.92867055300012],[7.831232137000143,45.914459534000045],[7.84962011600004,45.93971206200011],[7.855934900175498,45.91931914995877],[7.863537439601146,45.805995170640585],[7.91629378962665,45.72966215968091],[7.919545742641901,45.649044480818134],[7.8801707416863565,45.60269316086067],[7.7493235685278705,45.56414213405225],[7.545922681886225,45.5898061978977],[7.464579904838729,45.57421659771779],[7.3854783399534085,45.524349652514445],[7.212311829527323,45.48381009965635],[7.0753685430000814,45.466285856000056],[6.982808471000055,45.51112498000005],[6.963378133000049,45.640729472000075],[6.843075398000082,45.682742411999996],[6.783868043959269,45.76499475113478],[6.800804077000095,45.82645457000005],[6.969165893000138,45.86975942000002],[7.022082560000115,45.92525990899999]]]},"properties":{"name":"Valle d'Aosta"}},{"type":"Feature","geometry":{"type":"Polygon","coordinates":[[[7.855934900175498,45.91931914995877],[7.84962011600004,45.93971206200011],[7.8982047940000655,45.98194895400009],[7.985848022000084,45.99931223600002],[8.018197469000143,46.08085764600007],[8.110594930000076,46.12695302300007],[8.129508504000114,46.19604441300005],[8.07731530700002,46.26203521800009],[8.192553752000038,46.30916412400008],[8.291462443000114,46.378358866],[8.316267130000142,46.433652649000024],[8.385906925000114,46.45020601800009],[8.441634155000116,46.43494456000006],[8.427164754000074,46.251441549000006],[8.510260457000072,46.207878317000066],[8.601831095000136,46.12281890900006],[8.728973717163285,46.10823573289275],[8.720734738317503,46.0120217898737],[8.593139518174212,45.917506405396296],[8.598412956492723,45.825990288720845],[8.565410025452309,45.79862334419198],[8.64607164968686,45.68873808639353],[8.705178097391297,45.55678129372171],[8.832004273978043,45.40818021464514],[8.658683954301011,45.31641141185713],[8.546491567631733,45.36421292728477],[8.512620921218513,45.31344975010586],[8.556555044279833,45.16478909184309],[8.669055048551627,45.024801293045186],[8.77412829488486,45.0276357663775],[8.850351441965472,45.05844143152683],[8.882431521997148,45.00053249318],[9.050324594104723,44.88336329967649],[9.048259164328954,44.848811296304234],[9.140610242168918,44.81561061154048],[9.205934952336179,44.72083155483239],[9.201430557574156,44.68212671967234],[9.203144424375694,44.61375879723067],[9.148520399197025,44.58110742916449],[8.95922595801153,44.682599131744496],[8.878036990214923,44.63999415001001],[8.90926013594651,44.57402124718277],[8.833234742589298,44.56100244720517],[8.77612780705266,44.503126469011306],[8.72462389877387,44.578624518806464],[8.613046745510871,44.587512458333265],[8.564157583705537,44.516244144951315],[8.38991441301971,44.50683984798059],[8.359614119196237,44.480956058175536],[8.265461282911872,44.52173730922942],[8.249750833634039,44.534591313838064],[8.194357764898939,44.46953027590149],[8.205827491645437,44.42243188552305],[8.071640474728099,44.3114589813469],[8.077529147352266,44.18583031411765],[8.002118988300651,44.118440175074],[7.74002913453694,44.13366722616155],[7.687931964188806,44.09079857219632],[7.624733114000065,44.18009511300001],[7.380820353000075,44.12294098000008],[7.251319214000091,44.16004465700006],[7.033451375000084,44.24293365500007],[6.996140991000061,44.23781768800008],[6.878434882973598,44.35462280714269],[6.917799519000084,44.43630686400003],[6.838837931000114,44.502917786000026],[6.84638269000007,44.547462871000036],[6.945601441000122,44.625442607000096],[6.938299759716933,44.65796978104865],[7.03881884212556,44.712119593556416],[6.982808471000055,44.846979472],[6.866019735000094,44.85566111300007],[6.727940307000097,44.92873158800002],[6.723496134000072,45.013377584000025],[6.6622078850000435,45.029242249000035],[6.6293851850000465,45.12354511300005],[6.736415242000078,45.15734812500004],[6.84410892700015,45.130114645000035],[6.958727254000081,45.20979970300009],[7.062183471000111,45.218533021000056],[7.1083822020001435,45.25920237300001],[7.0925692130000755,45.323952942000105],[7.160678752000081,45.41092437800005],[7.0753685430000814,45.466285856000056],[7.212311829527323,45.48381009965635],[7.3854783399534085,45.524349652514445],[7.464579904838729,45.57421659771779],[7.545922681886225,45.5898061978977],[7.7493235685278705,45.56414213405225],[7.8801707416863565,45.60269316086067],[7.919545742641901,45.649044480818134],[7.91629378962665,45.72966215968091],[7.863537439601146,45.805995170640585],[7.855934900175498,45.91931914995877]]]},"properties":{"name":"Piemonte"}},{"type":"Feature","geometry":{"type":"Polygon","coordinates":[[[8.598412956492723,45.825990288720845],[8.593139518174212,45.917506405396296],[8.720734738317503,46.0120217898737],[8.728973717163285,46.10823573289275],[8.834375041000015,46.06638824500003],[8.767919149000079,45.983085836],[8.870961954000052,45.9470673630001],[8.908884719317435,45.82829263130598],[9.002426798000073,45.82071848599999],[9.05927087400002,45.881955058000116],[9.001703329000094,45.93606028300012],[9.002116740000105,46.03930979500008],[9.059167521000091,46.06178904299999],[9.072086629000097,46.11889150000009],[9.16378802499736,46.1729892674407],[9.22483143702118,46.23118805818234],[9.2689738360001,46.30937083000005],[9.263186076000125,46.48512237600001],[9.437852417000101,46.49204701800009],[9.451598348000118,46.370374858000034],[9.559705444000087,46.292731018000026],[9.674323771000047,46.291800842000086],[9.768064819000102,46.3386196900001],[9.899012899000098,46.37215769500001],[9.96402185100007,46.35608632500005],[9.977561076000114,46.298105367000076],[10.04267338000011,46.220487366],[10.15894535300012,46.262448629000104],[10.091765991000074,46.32895619800006],[10.133417195000078,46.414015605000074],[10.026343627000074,46.44626169900003],[10.032751506000125,46.5329747520001],[10.097450398000092,46.60803477000009],[10.192121623000048,46.6268191540001],[10.295371135000096,46.55108734100013],[10.451828554544136,46.54670442776711],[10.49386224734485,46.494475421303605],[10.624709420503336,46.45445222678882],[10.61890863862277,46.375361648021624],[10.527853947901349,46.342644361448095],[10.577687933851053,46.31272858895318],[10.590234320857235,46.2333743379553],[10.558549750070881,46.1180069010976],[10.460375918114096,45.981589659934855],[10.519482365818533,45.91673736273907],[10.522910100320871,45.84133818980558],[10.579226020064766,45.79472319761743],[10.728618115833342,45.84883086625143],[10.844897416682443,45.83405425410052],[10.64424311262951,45.60957060300092],[10.661755320351745,45.41903470708604],[10.7064037596258,45.32948514332469],[10.993059043839764,45.19393582168078],[11.077346156300052,45.09946438257515],[11.210302704606136,45.104298366276566],[11.195734832296637,45.063396265225435],[11.421503884396714,44.949863546065785],[11.25701657365596,44.94733669123531],[11.163435026305422,44.931516378078356],[11.08308101967333,44.96190456264543],[10.88778490424994,44.91402326476185],[10.764499464678522,44.94355739375868],[10.680256297590063,44.98707424128321],[10.632663522003952,44.93948146569704],[10.501513503045715,44.91943119759168],[10.413969665767468,44.98480007076665],[10.350358824200384,44.9840200419913],[10.183542411453118,45.046554224198076],[10.071877367446518,45.03753444855596],[9.986601485470146,45.128720975392696],[9.882890543863482,45.13414822116346],[9.681445224017864,45.07533840494341],[9.546048764638783,45.13265700581616],[9.5460716838611,45.09745388428928],[9.4250462882556,45.10117824937669],[9.302614643451022,44.89617335891336],[9.355217184225637,44.82654200860679],[9.305866596466217,44.758844251960625],[9.309118549481468,44.695716808583825],[9.201430557574156,44.68212671967234],[9.205934952336179,44.72083155483239],[9.140610242168918,44.81561061154048],[9.048259164328954,44.848811296304234],[9.050324594104723,44.88336329967649],[8.882431521997148,45.00053249318],[8.850351441965472,45.05844143152683],[8.77412829488486,45.0276357663775],[8.669055048551627,45.024801293045186],[8.556555044279833,45.16478909184309],[8.512620921218513,45.31344975010586],[8.546491567631733,45.36421292728477],[8.658683954301011,45.31641141185713],[8.832004273978043,45.40818021464514],[8.705178097391297,45.55678129372171],[8.64607164968686,45.68873808639353],[8.565410025452309,45.79862334419198],[8.598412956492723,45.825990288720845]]]},"properties":{"name":"Lombardia"}},{"type":"Feature","geometry":{"type":"Polygon","coordinates":[[[10.451828554544136,46.54670442776711],[10.459082072000058,46.62356353800003],[10.36916508000013,46.67239776600009],[10.428696330000008,46.75564849900009],[10.453811076000136,46.864427389000056],[10.527708374000099,46.84321421300008],[10.662480509000119,46.86096506800003],[10.754774618000113,46.790762634000046],[10.880348348000041,46.76458852200004],[10.996930379000105,46.76911021000005],[11.054601277000074,46.81993398000007],[11.091911662000115,46.912434795000095],[11.1566105550001,46.95651479100009],[11.31381026200009,46.98726226800004],[11.411168661000147,46.97049326600008],[11.452923217000091,47.00087900900003],[11.596480347000096,47.0004397580001],[11.746445353000041,46.97245697100003],[11.943642618000126,47.038163555000054],[12.133146313751354,47.07883160609373],[12.203896989000043,47.067011988000004],[12.111177612000063,46.9929983520001],[12.195100138000043,46.88008534800012],[12.266620320000072,46.868148092000084],[12.26910078900005,46.788566387000046],[12.342688029000044,46.76513112400009],[12.370386596000088,46.71115509000002],[12.469632061270602,46.67579888071373],[12.39922120649345,46.6397366575207],[12.213969735015269,46.59606600164466],[12.099140628737018,46.66782870023428],[12.02203857512012,46.5394095050446],[11.832238763508087,46.50403352752522],[11.888247065649523,46.467394122141],[11.803850090209494,46.34528108015769],[11.853464350199602,46.27371613619073],[11.9273583952737,46.250611887328716],[11.969436034345506,46.19630646497137],[11.896464839380826,46.13266266415059],[11.712136219810702,46.101065983208514],[11.684802233636162,45.98432525550612],[11.599328597936449,45.97941436717929],[11.4950463673959,46.01243927045596],[11.392609839772263,45.98107330249087],[11.358969702189995,45.92293365206638],[11.278725558537701,45.91895660086641],[11.130717740631212,45.69959257883443],[11.006704063341829,45.712864064025325],[10.931777303379818,45.68189360350698],[10.876669879111603,45.71581938645551],[10.90024654004577,45.784077445018056],[10.844897416682443,45.83405425410052],[10.728618115833342,45.84883086625143],[10.579226020064766,45.79472319761743],[10.522910100320871,45.84133818980558],[10.519482365818533,45.91673736273907],[10.460375918114096,45.981589659934855],[10.558549750070881,46.1180069010976],[10.590234320857235,46.2333743379553],[10.577687933851053,46.31272858895318],[10.527853947901349,46.342644361448095],[10.61890863862277,46.375361648021624],[10.624709420503336,46.45445222678882],[10.49386224734485,46.494475421303605],[10.451828554544136,46.54670442776711]]]},"properties":{"name":"Trentino-Alto Adige"}},{"type":"Feature","geometry":{"type":"Polygon","coordinates":[[[7.502289259000065,43.792222398000035],[7.477868693000062,43.86551483200013],[7.630934285000137,43.993543193000036],[7.687931964188806,44.09079857219632],[7.74002913453694,44.13366722616155],[8.002118988300651,44.118440175074],[8.077529147352266,44.18583031411765],[8.071640474728099,44.3114589813469],[8.205827491645437,44.42243188552305],[8.194357764898939,44.46953027590149],[8.249750833634039,44.534591313838064],[8.265461282911872,44.52173730922942],[8.359614119196237,44.480956058175536],[8.38991441301971,44.50683984798059],[8.564157583705537,44.516244144951315],[8.613046745510871,44.587512458333265],[8.72462389877387,44.578624518806464],[8.77612780705266,44.503126469011306],[8.833234742589298,44.56100244720517],[8.90926013594651,44.57402124718277],[8.878036990214923,44.63999415001001],[8.95922595801153,44.682599131744496],[9.148520399197025,44.58110742916449],[9.203144424375694,44.61375879723067],[9.414191795814702,44.59407129675293],[9.491334523069781,44.5510477318673],[9.450974023432423,44.46870630175442],[9.476396388182764,44.41247827185475],[9.598520416284146,44.42715600714399],[9.689772860728908,44.35765649295274],[9.852084878714152,44.252594232737636],[9.896953044847123,44.168878409211175],[9.981481856402524,44.1500698143704],[10.056892015454139,44.094446033557574],[10.028458440713065,44.04925549510206],[9.962738477000073,44.04466380400004],[9.844737175000091,44.108628648000035],[9.771820509000065,44.079413153000075],[9.621104363000086,44.14826080900008],[9.511241082000083,44.21523672100005],[9.230642123000052,44.35370514500005],[9.130056186000047,44.363348700000074],[8.826996290000068,44.42845286700003],[8.724782748000052,44.42397695500006],[8.630560756513738,44.381894921544294],[8.466075066000087,44.30426666900007],[8.408213738000086,44.19350820500006],[8.313487175000091,44.16046784100007],[8.233164910000085,44.103583075000074],[8.216319207000083,44.04523346600007],[8.130225812766355,43.9403431039096],[7.9597274100000845,43.852850653000075],[7.7858179050000444,43.821966864000046],[7.69499759200005,43.79120514500005],[7.502289259000065,43.792222398000035]]]},"properties":{"name":"Liguria"}},{"type":"Feature","geometry":{"type":"Polygon","coordinates":[[[12.490736531221911,43.9650442922286],[12.427247467361068,43.969389801993934],[12.416570016579328,43.96369669573638],[12.385628745000105,43.924534153000124],[12.389963557785018,43.917911522114856],[12.421106834936927,43.89517351031211],[12.351452650319516,43.86995139544052],[12.28584229568537,43.76886618642533],[12.17531983134512,43.74456442820576],[12.102238773400643,43.759033422754214],[11.968601073180992,43.77313986910963],[11.809277336879575,43.826423561797924],[11.716335402656682,43.8791431709206],[11.650700670099809,43.990855941048835],[11.720200184291059,44.07023216518223],[11.71998024339348,44.1316840160045],[11.65379881476349,44.11885765565626],[11.571840804309659,44.17369042067634],[11.526269473557363,44.16222283611495],[11.391994605466664,44.232445306305806],[11.291118137192257,44.170790030635374],[11.2036449893248,44.15880394554563],[11.200106485326046,44.10467889841243],[11.048254125927144,44.09238278643642],[10.985302696062547,44.12588890524876],[10.923229939809858,44.067957995564996],[10.815869081692767,44.11351293257576],[10.707392529141885,44.16201195408837],[10.610537056539897,44.125702137643486],[10.483930605912747,44.186808097515666],[10.471230410554995,44.2245900807676],[10.350974058505983,44.274918451924975],[10.253943701940273,44.2706036801157],[10.135707936771837,44.341814206660274],[10.072602465631292,44.35213036942099],[9.935559003145443,44.47038720930226],[9.835649331251602,44.47625390879085],[9.689772860728908,44.35765649295274],[9.598520416284146,44.42715600714399],[9.476396388182764,44.41247827185475],[9.450974023432423,44.46870630175442],[9.491334523069781,44.5510477318673],[9.414191795814702,44.59407129675293],[9.203144424375694,44.61375879723067],[9.201430557574156,44.68212671967234],[9.309118549481468,44.695716808583825],[9.305866596466217,44.758844251960625],[9.355217184225637,44.82654200860679],[9.302614643451022,44.89617335891336],[9.4250462882556,45.10117824937669],[9.5460716838611,45.09745388428928],[9.546048764638783,45.13265700581616],[9.681445224017864,45.07533840494341],[9.882890543863482,45.13414822116346],[9.986601485470146,45.128720975392696],[10.071877367446518,45.03753444855596],[10.183542411453118,45.046554224198076],[10.350358824200384,44.9840200419913],[10.413969665767468,44.98480007076665],[10.501513503045715,44.91943119759168],[10.632663522003952,44.93948146569704],[10.680256297590063,44.98707424128321],[10.764499464678522,44.94355739375868],[10.88778490424994,44.91402326476185],[11.08308101967333,44.96190456264543],[11.163435026305422,44.931516378078356],[11.25701657365596,44.94733669123531],[11.421503884396714,44.949863546065785],[11.553383772443112,44.9292422075618],[11.606293929920923,44.898810077622954],[11.735690907609296,44.93854762767086],[11.797346183279728,44.97764797117691],[11.990661621036963,44.98386623363973],[12.087209476036492,44.97048488546909],[12.135109868325742,44.93684474698745],[12.271999522459964,44.93642726640519],[12.293378917503048,44.86475245945843],[12.393396594381445,44.79345219310439],[12.29232832100007,44.84324778900009],[12.246592644000089,44.71161530200004],[12.269582296230839,44.62975477246362],[12.283702019000089,44.487616278000075],[12.318207227000073,44.36115143400008],[12.385615365732452,44.22849609247982],[12.458018425000091,44.16640859600005],[12.631358269000089,44.03009674700007],[12.753835483000046,43.97239817900004],[12.730832547583987,43.88197043888465],[12.633054223073941,43.84254050643921],[12.59135012011194,43.89334128966874],[12.483090838371481,43.9292006653784],[12.491516005689142,43.9491018402741],[12.490736531221911,43.9650442922286]]]},"properties":{"name":"Emilia-Romagna"}},{"type":"Feature","geometry":{"type":"Polygon","coordinates":[[[12.28584229568537,43.76886618642533],[12.351452650319516,43.86995139544052],[12.421106834936927,43.89517351031211],[12.44126355892303,43.89327621237619],[12.464397393142015,43.900073246341904],[12.478026206000095,43.92321640400006],[12.483090838371481,43.9292006653784],[12.59135012011194,43.89334128966874],[12.633054223073941,43.84254050643921],[12.730832547583987,43.88197043888465],[12.753835483000046,43.97239817900004],[12.803965691000087,43.966864325000074],[12.947276238000086,43.89760976800005],[13.177206383015417,43.751518513248975],[13.25326582100007,43.703192450000074],[13.473399285000085,43.61200592700004],[13.504405144000089,43.63275788000004],[13.615570509000065,43.56049225500004],[13.646966413963892,43.47528059077752],[13.744997028384391,43.29224557661883],[13.853485288725958,43.06735665508768],[13.905526647137037,42.901560778607006],[13.712790593111379,42.86006610346789],[13.681721255731361,42.81702166801557],[13.530417538538586,42.807463562693215],[13.429760797123095,42.70173113668261],[13.3375635276347,42.68765764958084],[13.26791020419256,42.74462176288404],[13.194477585072491,42.73460223160765],[13.248947801899533,42.76778094323589],[13.22429448070568,42.847673524813274],[13.166726118315694,42.82451434446142],[13.048798868273138,42.91784320480002],[12.91313968364949,42.96342548210032],[12.895319858324797,43.08745014550777],[12.837443879231614,43.13248310611044],[12.851723772434127,43.206090223385104],[12.746499051490048,43.378829550443356],[12.758166532859207,43.46122701461502],[12.604687522910865,43.430344445739536],[12.51049074215399,43.51248922379864],[12.319943860121043,43.546184293770125],[12.285952159564488,43.59160177570135],[12.204807137139653,43.61682638582903],[12.195820319851862,43.65335592823345],[12.357626966511305,43.72260275721146],[12.28584229568537,43.76886618642533]]]},"properties":{"name":"Marche"}},{"type":"Feature","geometry":{"type":"Polygon","coordinates":[[[11.832238763508087,46.50403352752522],[12.02203857512012,46.5394095050446],[12.099140628737018,46.66782870023428],[12.213969735015269,46.59606600164466],[12.39922120649345,46.6397366575207],[12.469632061270602,46.67579888071373],[12.562002807000056,46.651210429000045],[12.671367649897093,46.65246576338427],[12.74849856365779,46.6410000853856],[12.757089872599522,46.534476643582195],[12.663662134499873,46.516535969159634],[12.64070070787136,46.46387849689506],[12.551162130228136,46.457418535337126],[12.500092240164747,46.4041814599064],[12.436640641552344,46.33210847182846],[12.335917981629507,46.26947541276007],[12.456481951281035,46.20638092863692],[12.501965350820285,46.111030582995],[12.422431828066408,46.043078760676224],[12.444704606932078,45.96624175885006],[12.522268086502947,45.9241751067957],[12.567905295293144,45.83885527944756],[12.672802760139234,45.80206206481239],[12.791960479692364,45.85616973344639],[12.826743196041662,45.824441216389005],[12.972883337895723,45.84262358990674],[13.09562817430077,45.65232145297267],[12.943858269000089,45.628566799000055],[12.780772332000083,45.55353424700007],[12.487803582000083,45.456732489000046],[12.537282748000052,45.53583405200004],[12.441905144000089,45.53034088700008],[12.272715691000087,45.46360911700003],[12.20875084700009,45.30906810100004],[12.149099155000044,45.292181708000044],[12.199392123000052,45.274603583000044],[12.247325066000087,45.196926174000055],[12.321256412437899,45.16480731384113],[12.328461134000065,45.10101959800005],[12.376231316000087,45.03896719000005],[12.52702884200005,44.943345445000034],[12.444590691000087,44.82050202000005],[12.393396594381445,44.79345219310439],[12.293378917503048,44.86475245945843],[12.271999522459964,44.93642726640519],[12.135109868325742,44.93684474698745],[12.087209476036492,44.97048488546909],[11.990661621036963,44.98386623363973],[11.797346183279728,44.97764797117691],[11.735690907609296,44.93854762767086],[11.606293929920923,44.898810077622954],[11.553383772443112,44.9292422075618],[11.421503884396714,44.949863546065785],[11.195734832296637,45.063396265225435],[11.210302704606136,45.104298366276566],[11.077346156300052,45.09946438257515],[10.993059043839764,45.19393582168078],[10.7064037596258,45.32948514332469],[10.661755320351745,45.41903470708604],[10.64424311262951,45.60957060300092],[10.844897416682443,45.83405425410052],[10.90024654004577,45.784077445018056],[10.876669879111603,45.71581938645551],[10.931777303379818,45.68189360350698],[11.006704063341829,45.712864064025325],[11.130717740631212,45.69959257883443],[11.278725558537701,45.91895660086641],[11.358969702189995,45.92293365206638],[11.392609839772263,45.98107330249087],[11.4950463673959,46.01243927045596],[11.599328597936449,45.97941436717929],[11.684802233636162,45.98432525550612],[11.712136219810702,46.101065983208514],[11.896464839380826,46.13266266415059],[11.969436034345506,46.19630646497137],[11.9273583952737,46.250611887328716],[11.853464350199602,46.27371613619073],[11.803850090209494,46.34528108015769],[11.888247065649523,46.467394122141],[11.832238763508087,46.50403352752522]]]},"properties":{"name":"Veneto"}},{"type":"Feature","geometry":{"type":"Polygon","coordinates":[[[12.500092240164747,46.4041814599064],[12.551162130228136,46.457418535337126],[12.64070070787136,46.46387849689506],[12.663662134499873,46.516535969159634],[12.757089872599522,46.534476643582195],[12.74849856365779,46.6410000853856],[12.830410197000077,46.60963674000003],[13.064504435000089,46.59803538000007],[13.231109253000056,46.55217254700001],[13.478019246000116,46.56356720000012],[13.700951375000102,46.51974558600001],[13.685852877000059,46.464047231000094],[13.600182332000117,46.44264434900005],[13.530005737000067,46.388332418000104],[13.423242229000039,46.344846700000076],[13.395637648000076,46.30672792800006],[13.41011641500009,46.207981669999995],[13.510161988000078,46.21397613600003],[13.627366323896695,46.18173316345468],[13.64107145100013,46.17140514500004],[13.616408732000139,46.12504099500008],[13.522585296973887,46.07529802338507],[13.461792846000037,46.00639190700012],[13.509438517000149,45.96742787700005],[13.600734871916814,45.984574052950165],[13.615325176000084,45.945912448000016],[13.599306242000097,45.91232749900003],[13.574172201885574,45.81902805669944],[13.588513778236168,45.80648247701627],[13.699908416000142,45.77052373600007],[13.778724406000038,45.74341054300008],[13.89364052978658,45.63375840632534],[13.86792570600008,45.602169289000116],[13.800531860000149,45.581249899000014],[13.711761915000068,45.59320709800005],[13.795583530000044,45.61701080900008],[13.72624759200005,45.70376211100006],[13.583327116904757,45.78678872131923],[13.507823113000086,45.71442291900007],[13.422618035000085,45.72406647300005],[13.131358269000089,45.768866278000075],[13.069590691000087,45.71369049700007],[13.09562817430077,45.65232145297267],[12.972883337895723,45.84262358990674],[12.826743196041662,45.824441216389005],[12.791960479692364,45.85616973344639],[12.672802760139234,45.80206206481239],[12.567905295293144,45.83885527944756],[12.522268086502947,45.9241751067957],[12.444704606932078,45.96624175885006],[12.422431828066408,46.043078760676224],[12.501965350820285,46.111030582995],[12.456481951281035,46.20638092863692],[12.335917981629507,46.26947541276007],[12.436640641552344,46.33210847182846],[12.500092240164747,46.4041814599064]]]},"properties":{"name":"Friuli-Venezia Giulia"}},{"type":"Feature","geometry":{"type":"Polygon","coordinates":[[[13.3375635276347,42.68765764958084],[13.429760797123095,42.70173113668261],[13.530417538538586,42.807463562693215],[13.681721255731361,42.81702166801557],[13.712790593111379,42.86006610346789],[13.905526647137037,42.901560778607006],[13.94467207100007,42.79828522300005],[14.075368686000047,42.598822333000044],[14.151262702889609,42.531564237800374],[14.25715884396045,42.44607486821477],[14.387380405000044,42.37295156500005],[14.42904707100007,42.32172272300005],[14.56023196700005,42.22565338700008],[14.717051629000082,42.16006094000005],[14.76335696700005,42.07794830900008],[14.744340924593985,42.013042145278746],[14.514550876821488,41.786130515311015],[14.490381434955225,41.77607928113389],[14.432944428442624,41.837030175402276],[14.282871180760367,41.90623305900846],[14.229410536567002,41.877366328593155],[14.143190999564979,41.81470595621488],[14.175183188853055,41.760059957900694],[13.945700757783754,41.688176410213146],[13.891845775262311,41.72365126549346],[13.74425543793808,41.75461073899436],[13.646630921779604,41.81052016517344],[13.578845275289211,41.769903708589254],[13.40521733890904,41.83160292963146],[13.370170950329054,41.90310195509113],[13.29785731266486,41.947045739569205],[13.097050823536676,42.0236659247426],[13.028430214982393,42.03192764384568],[13.029582059464474,42.11564326682327],[13.098764690338157,42.17365128258058],[13.233896531399807,42.12905777479642],[13.302165576979803,42.13756119299461],[13.316953175248841,42.19690933979416],[13.163320356948873,42.338556073903646],[13.178349654313081,42.39994767734339],[13.135349164232537,42.538287526947784],[13.186106002090298,42.58691301652249],[13.338024953588729,42.57456438323965],[13.375883841466077,42.603766044567294],[13.3375635276347,42.68765764958084]]]},"properties":{"name":"Abruzzo"}},{"type":"Feature","geometry":{"type":"Polygon","coordinates":[[[14.490381434955225,41.77607928113389],[14.514550876821488,41.786130515311015],[14.744340924593985,42.013042145278746],[14.76335696700005,42.07794830900008],[14.871104363000086,42.03180573100008],[14.993662957000083,42.010646877000056],[15.143540133270506,41.93118296042525],[15.106076778920169,41.82976821283273],[15.107329219767678,41.72747450744254],[15.152131468292623,41.70906142094782],[15.017614861536629,41.619731583146006],[14.93394298338194,41.620094132238364],[14.935041615877878,41.52599622834322],[14.995290641449913,41.482072886354615],[14.827024033232533,41.425691049002694],[14.602353614527658,41.37311048046428],[14.51384842086793,41.38903109590831],[14.382694794728991,41.441960703923314],[14.222512292208478,41.49480604186533],[14.120866780377582,41.4956629752661],[14.039282304234916,41.394577766250904],[13.96180671540759,41.47070203646979],[14.010080642907326,41.52894056465533],[13.992568435185149,41.62828993373341],[13.945700757783754,41.688176410213146],[14.175183188853055,41.760059957900694],[14.143190999564979,41.81470595621488],[14.229410536567002,41.877366328593155],[14.282871180760367,41.90623305900846],[14.432944428442624,41.837030175402276],[14.490381434955225,41.77607928113389]]]},"properties":{"name":"Molise"}},{"type":"Feature","geometry":{"type":"Polygon","coordinates":[[[14.995290641449913,41.482072886354615],[14.935041615877878,41.52599622834322],[14.93394298338194,41.620094132238364],[15.017614861536629,41.619731583146006],[15.152131468292623,41.70906142094782],[15.107329219767678,41.72747450744254],[15.106076778920169,41.82976821283273],[15.143540133270506,41.93118296042525],[15.281748894000089,41.92804596600007],[15.446055535000085,41.90692780200004],[15.611338738000086,41.92804596600007],[15.774424675000091,41.921210028000075],[16.02711022200009,41.94407786700003],[16.140472852000073,41.919907945000034],[16.192881707000083,41.79092031500005],[16.027517123000052,41.67991771000004],[15.925303582000083,41.64004140800006],[15.891368035000085,41.57684967700004],[15.91179446700005,41.50287506700005],[15.971734283331804,41.45390428162691],[16.021657748000052,41.427801825000074],[16.544163645584927,41.235193775759846],[16.593923373000052,41.20697663000004],[17.05713951900009,41.08185455900008],[17.27637780000009,40.98021067900004],[17.392260470904205,40.89368594834969],[17.476084832000083,40.830145575000074],[17.748383009000065,40.74762604400007],[17.843923373000052,40.69415924700007],[18.007009311000047,40.65070221600007],[18.037445509000065,40.55695221600007],[18.098928192790666,40.51793435890745],[18.211680535000085,40.46474844000005],[18.30323326900009,40.39988841400009],[18.43726647200009,40.26788971600007],[18.517425977000073,40.114162502000056],[18.43409264400009,40.02252838700008],[18.392588738000086,39.916083075000074],[18.383962436000047,39.81391022300005],[18.330414259000065,39.80341217700004],[18.211273634000065,39.83934153900009],[18.071543816000087,39.91152578300006],[18.007334832000083,39.98607005400004],[17.997243686000047,40.120428778000075],[17.926036004000082,40.17625560100004],[17.912771030000044,40.25531647300005],[17.847666863000086,40.29002513200004],[17.764022121701487,40.29343258024086],[17.512054884000065,40.30369700700004],[17.212901238000086,40.40619538000004],[17.24740644600007,40.502834377000056],[17.049571160000085,40.51911041900007],[16.976084832000083,40.492621161000045],[16.863276657791516,40.390919726364245],[16.786303893409922,40.47345102224688],[16.74112811057381,40.46776010424537],[16.711311214940622,40.55153085926173],[16.71566180135102,40.71539194957876],[16.62102556687637,40.75849131652103],[16.49778093314353,40.75782114982616],[16.396443038915095,40.71296397071063],[16.245401190812288,40.837546858600604],[16.196623695127414,40.91143199588987],[16.119038243320233,40.904170032421064],[15.987575835856148,40.949906118072875],[16.03134536859386,41.01692272280542],[15.953320463068906,41.08537853599063],[15.858332666519345,41.136816525762015],[15.771101217747002,41.104549679024444],[15.596396622006466,41.10935070437148],[15.558559706365315,41.05512218663955],[15.411760383934563,41.10392345860072],[15.287614871429184,41.10250622148493],[15.208930786226802,41.14942883127554],[15.252063112422661,41.258830690883656],[15.143452268607291,41.274618044786905],[15.071931269112781,41.3354054009385],[15.093640254893842,41.43023938823717],[14.995290641449913,41.482072886354615]]]},"properties":{"name":"Puglia"}},{"type":"Feature","geometry":{"type":"Polygon","coordinates":[[[16.245401190812288,40.837546858600604],[16.396443038915095,40.71296397071063],[16.49778093314353,40.75782114982616],[16.62102556687637,40.75849131652103],[16.71566180135102,40.71539194957876],[16.711311214940622,40.55153085926173],[16.74112811057381,40.46776010424537],[16.786303893409922,40.47345102224688],[16.863276657791516,40.390919726364245],[16.782725457000083,40.30158112200007],[16.737559441000087,40.211004950000074],[16.640048698588544,40.11874851563147],[16.41758073486301,40.12928230803209],[16.39882130146185,40.05553034594868],[16.345290692711274,39.932550122789905],[16.262717447951843,39.94218513273768],[16.197392738683902,39.91451057150567],[16.068918612004325,39.90668830522111],[15.951936186106082,40.00437873898761],[15.858332666519345,40.008180007801116],[15.745807744060896,39.92460382764366],[15.646651419391926,40.046931666694626],[15.693999164130105,40.16204353907807],[15.775451804157399,40.219820641309525],[15.785427390062011,40.268863612365806],[15.716960590758617,40.31844491310221],[15.706259906669345,40.374310393010205],[15.59219984394764,40.43329599161672],[15.534939100059432,40.49396249777101],[15.517580700688768,40.56470346669164],[15.445598276139492,40.60566050013193],[15.48947767185706,40.653747660026454],[15.378515753798979,40.72939951817318],[15.344260381911056,40.820684921871646],[15.369221319808048,40.898951526491715],[15.470866831638943,40.9017969859421],[15.544035779427645,40.94394054172261],[15.577939589240657,41.01103405018125],[15.558559706365315,41.05512218663955],[15.596396622006466,41.10935070437148],[15.771101217747002,41.104549679024444],[15.858332666519345,41.136816525762015],[15.953320463068906,41.08537853599063],[16.03134536859386,41.01692272280542],[15.987575835856148,40.949906118072875],[16.119038243320233,40.904170032421064],[16.196623695127414,40.91143199588987],[16.245401190812288,40.837546858600604]]]},"properties":{"name":"Basilicata"}},{"type":"Feature","geometry":{"type":"Polygon","coordinates":[[[16.39882130146185,40.05553034594868],[16.41758073486301,40.12928230803209],[16.640048698588544,40.11874851563147],[16.596934441000087,40.04677969000005],[16.631602410000085,39.96621328300006],[16.542246941000087,39.88540273600006],[16.491709832000083,39.80548737200007],[16.515635613000086,39.68960195500006],[16.624847852000073,39.62531159100007],[16.74976647200009,39.620021877000056],[16.84620201900009,39.55267975500004],[17.019200709742577,39.47922324146484],[17.05713951900009,39.44163646000004],[17.15870201900009,39.40619538000004],[17.122243686000047,39.338324286000045],[17.11768639400009,39.25600820500006],[17.145681186000047,39.21067942900004],[17.124522332000083,39.09088776200008],[17.17237389400009,39.005194403000075],[17.127696160000085,38.92877838700008],[17.02198326900009,38.905951239000046],[16.981293165000068,38.937201239000046],[16.892234624183345,38.929605326842946],[16.727793816000087,38.87885163000004],[16.610606316000087,38.81655508000006],[16.53882897200009,38.72333405200004],[16.576996290000068,38.528550523000035],[16.573491658469187,38.467325027888535],[16.561371290000068,38.41632721600007],[16.467051629000082,38.34870026200008],[16.339854363000086,38.300848700000074],[16.169444207000083,38.14321523600006],[16.12549889400009,38.00482819200005],[16.090017123000052,37.949204820000034],[16.00098717500009,37.91901276200008],[15.942149285000085,37.93309153900009],[15.76148522200009,37.92523834800005],[15.66578209700009,37.966864325000074],[15.627452019000089,38.10736725500004],[15.650563998000052,38.24103424700007],[15.78646894600007,38.27802155200004],[15.914422375735041,38.50562195682928],[15.90007571700005,38.57827383000006],[15.844493035000085,38.66038646000004],[16.002614780000044,38.72540924700007],[16.12086022200009,38.72093333500004],[16.179209832000083,38.74827708500004],[16.213689025479642,38.81039980499315],[16.22006269600007,38.89907461100006],[16.154307488000086,38.95502350500004],[16.096887947545625,39.05041320096651],[16.08301842500009,39.07526276200008],[16.03402716100004,39.34524176800005],[15.995396030000052,39.438768236000044],[15.867523634000065,39.56391022300005],[15.80640709700009,39.69550202000005],[15.781911655000044,39.86859772300005],[15.745807744060896,39.92460382764366],[15.858332666519345,40.008180007801116],[15.951936186106082,40.00437873898761],[16.068918612004325,39.90668830522111],[16.197392738683902,39.91451057150567],[16.262717447951843,39.94218513273768],[16.345290692711274,39.932550122789905],[16.39882130146185,40.05553034594868]]]},"properties":{"name":"Calabria"}},{"type":"Feature","geometry":{"type":"Polygon","coordinates":[[[15.344260381911056,40.820684921871646],[15.378515753798979,40.72939951817318],[15.48947767185706,40.653747660026454],[15.445598276139492,40.60566050013193],[15.517580700688768,40.56470346669164],[15.534939100059432,40.49396249777101],[15.59219984394764,40.43329599161672],[15.706259906669345,40.374310393010205],[15.716960590758617,40.31844491310221],[15.785427390062011,40.268863612365806],[15.775451804157399,40.219820641309525],[15.693999164130105,40.16204353907807],[15.646651419391926,40.046931666694626],[15.53492272200009,40.077785549000055],[15.410099591000062,39.99396986000005],[15.283050977000073,40.02985260600008],[15.26343834700009,40.07371653900009],[15.127207879000082,40.169623114000046],[15.03492272200009,40.17536041900007],[14.911143425000091,40.24164459800005],[14.932383660000085,40.33372630400004],[14.998266587000046,40.39755866100006],[14.888845248000052,40.57306549700007],[14.809743686000047,40.65298086100006],[14.752207879000082,40.67670319200005],[14.613291863000086,40.64590078300006],[14.544200066000087,40.61359284100007],[14.471364780000044,40.624660549000055],[14.379730665000068,40.63385651200008],[14.474131707000083,40.729681708000044],[14.366608709000047,40.78017824600005],[14.294200066000087,40.838771877000056],[14.203461134000065,40.801214911000045],[14.052256707000083,40.837591864000046],[14.010078434600286,40.93683092816594],[13.851725251000062,41.14731569400004],[13.74366407134597,41.23760326943394],[13.804921944092428,41.25373303405223],[13.872575755366825,41.3354054009385],[13.859699777622609,41.4192310874447],[13.96180671540759,41.47070203646979],[14.039282304234916,41.394577766250904],[14.120866780377582,41.4956629752661],[14.222512292208478,41.49480604186533],[14.382694794728991,41.441960703923314],[14.51384842086793,41.38903109590831],[14.602353614527658,41.37311048046428],[14.827024033232533,41.425691049002694],[14.995290641449913,41.482072886354615],[15.093640254893842,41.43023938823717],[15.071931269112781,41.3354054009385],[15.143452268607291,41.274618044786905],[15.252063112422661,41.258830690883656],[15.208930786226802,41.14942883127554],[15.287614871429184,41.10250622148493],[15.411760383934563,41.10392345860072],[15.558559706365315,41.05512218663955],[15.577939589240657,41.01103405018125],[15.544035779427645,40.94394054172261],[15.470866831638943,40.9017969859421],[15.369221319808048,40.898951526491715],[15.344260381911056,40.820684921871646]]]},"properties":{"name":"Campania"}},{"type":"Feature","geometry":{"type":"Polygon","coordinates":[[[13.872575755366825,41.3354054009385],[13.804921944092428,41.25373303405223],[13.74366407134597,41.23760326943394],[13.594411655000044,41.253119208000044],[13.514414910000085,41.229681708000044],[13.324392123000052,41.29482656500005],[13.20484459700009,41.28375885600008],[13.04460696700005,41.22752513200004],[12.979502800000091,41.33100006700005],[12.893565300000091,41.399318752000056],[12.774405430874301,41.420939951655406],[12.619395379000082,41.45913320500006],[12.448008660000085,41.63076406500005],[12.342784050000091,41.70229726800005],[12.239024285000085,41.73627350500004],[12.206228061000047,41.827337958000044],[12.147471550000091,41.90346914300005],[11.916840040000068,42.03790924700007],[11.82748457100007,42.03416575700004],[11.739818749343126,42.15993737323293],[11.658213738000086,42.279364325000074],[11.539073113000086,42.348863023000035],[11.451496463502611,42.3743712803365],[11.498144512059582,42.434049241779064],[11.590166000060833,42.44195939790785],[11.58816648789309,42.56613786966693],[11.671157214134098,42.5770363074796],[11.786909171421087,42.65124895717361],[11.807893059017431,42.738348569830634],[11.747226552863083,42.79847674540548],[11.889016109206068,42.85038714814834],[11.973918455971955,42.75597064053261],[11.930302731585755,42.709102963131215],[12.033662110218188,42.646030450344995],[12.156555181876115,42.67542986629525],[12.23583252824858,42.64757952267678],[12.280217296191267,42.51040422497499],[12.34283936824221,42.49192521997293],[12.451516130564983,42.421030441801406],[12.465132967112709,42.38693218327364],[12.528354511951136,42.369504561286476],[12.665661646667672,42.44345353874979],[12.716110866922975,42.48960710498386],[12.880114779473502,42.56468767419676],[12.901977573606132,42.609599784802185],[12.9879785528679,42.6079957809805],[13.153850141470855,42.64509661231875],[13.194477585072491,42.73460223160765],[13.26791020419256,42.74462176288404],[13.3375635276347,42.68765764958084],[13.375883841466077,42.603766044567294],[13.338024953588729,42.57456438323965],[13.186106002090298,42.58691301652249],[13.135349164232537,42.538287526947784],[13.178349654313081,42.39994767734339],[13.163320356948873,42.338556073903646],[13.316953175248841,42.19690933979416],[13.302165576979803,42.13756119299461],[13.233896531399807,42.12905777479642],[13.098764690338157,42.17365128258058],[13.029582059464474,42.11564326682327],[13.028430214982393,42.03192764384568],[13.097050823536676,42.0236659247426],[13.29785731266486,41.947045739569205],[13.370170950329054,41.90310195509113],[13.40521733890904,41.83160292963146],[13.578845275289211,41.769903708589254],[13.646630921779604,41.81052016517344],[13.74425543793808,41.75461073899436],[13.891845775262311,41.72365126549346],[13.945700757783754,41.688176410213146],[13.992568435185149,41.62828993373341],[14.010080642907326,41.52894056465533],[13.96180671540759,41.47070203646979],[13.859699777622609,41.4192310874447],[13.872575755366825,41.3354054009385]]]},"properties":{"name":"Lazio"}},{"type":"Feature","geometry":{"type":"MultiPolygon","coordinates":[[[[11.747226552863083,42.79847674540548],[11.807893059017431,42.738348569830634],[11.786909171421087,42.65124895717361],[11.671157214134098,42.5770363074796],[11.58816648789309,42.56613786966693],[11.590166000060833,42.44195939790785],[11.498144512059582,42.434049241779064],[11.451496463502611,42.3743712803365],[11.37663821700005,42.40688711100006],[11.211273634000065,42.41889069200005],[11.15593509200005,42.36627838700008],[11.094493035000085,42.40273672100005],[11.164190816000087,42.43982808100009],[11.18685957100007,42.520819403000075],[11.12867272200009,42.55805084800005],[11.07781009200005,42.63222890800006],[10.99000084700009,42.710272528000075],[10.890879754000082,42.76390208500004],[10.731293165000068,42.80442942900004],[10.777679884000065,42.89472077000005],[10.705054403294788,42.940937583476476],[10.583262566000087,42.95970286700003],[10.499522332000083,42.94049713700008],[10.54656009200005,43.14712148600006],[10.51693769600007,43.266791083000044],[10.437022332000083,43.38857656500005],[10.317230665000068,43.492621161000045],[10.293418294039624,43.579129757304884],[10.261770662028662,43.81612774175824],[10.210134311000047,43.92023346600007],[10.143296703893075,43.975092425311786],[10.028458440713065,44.04925549510206],[10.056892015454139,44.094446033557574],[9.981481856402524,44.1500698143704],[9.896953044847123,44.168878409211175],[9.852084878714152,44.252594232737636],[9.689772860728908,44.35765649295274],[9.835649331251602,44.47625390879085],[9.935559003145443,44.47038720930226],[10.072602465631292,44.35213036942099],[10.135707936771837,44.341814206660274],[10.253943701940273,44.2706036801157],[10.350974058505983,44.274918451924975],[10.471230410554995,44.2245900807676],[10.483930605912747,44.186808097515666],[10.610537056539897,44.125702137643486],[10.707392529141885,44.16201195408837],[10.815869081692767,44.11351293257576],[10.923229939809858,44.067957995564996],[10.985302696062547,44.12588890524876],[11.048254125927144,44.09238278643642],[11.200106485326046,44.10467889841243],[11.2036449893248,44.15880394554563],[11.291118137192257,44.170790030635374],[11.391994605466664,44.232445306305806],[11.526269473557363,44.16222283611495],[11.571840804309659,44.17369042067634],[11.65379881476349,44.11885765565626],[11.71998024339348,44.1316840160045],[11.720200184291059,44.07023216518223],[11.650700670099809,43.990855941048835],[11.716335402656682,43.8791431709206],[11.809277336879575,43.826423561797924],[11.968601073180992,43.77313986910963],[12.102238773400643,43.759033422754214],[12.17531983134512,43.74456442820576],[12.28584229568537,43.76886618642533],[12.357626966511305,43.72260275721146],[12.195820319851862,43.65335592823345],[12.204807137139653,43.61682638582903],[12.13748291570397,43.531605435342556],[12.134077153437886,43.4888136860028],[12.037067872484329,43.416523643851065],[12.132626957967716,43.35725240167699],[12.158400884792968,43.262682085709685],[12.022961427028235,43.241884965718555],[11.95271090158684,43.1737987379214],[11.91775634457963,43.12243061558041],[11.977807616428322,43.04636127685143],[11.932170407638182,42.9272035572983],[11.931662005597047,42.8716807928343],[11.889016109206068,42.85038714814834],[11.747226552863083,42.79847674540548]]],[[[10.443369988000086,42.84544505400004],[10.381358269000089,42.72256094000005],[10.337901238000086,42.764837958000044],[10.229665561000047,42.73541901200008],[10.147227410000085,42.73729075700004],[10.111664259000065,42.80125560100004],[10.265879754000082,42.80442942900004],[10.399912957000083,42.868841864000046],[10.443369988000086,42.84544505400004]]]]},"properties":{"name":"Toscana"}},{"type":"Feature","geometry":{"type":"MultiPolygon","coordinates":[[[[11.999522332000083,36.835923570000034],[12.051524285000085,36.790350653000075],[11.996104363000086,36.74494049700007],[11.922211134000065,36.82835521000004],[11.999522332000083,36.835923570000034]]],[[[12.893890974058364,37.57328921541057],[12.697764519000089,37.56273021000004],[12.636241082000083,37.58222077000005],[12.594737175000091,37.637884833000044],[12.489024285000085,37.68268463700008],[12.427012566000087,37.79702383000006],[12.460459832000083,37.81903717700004],[12.464121941000087,37.91290924700007],[12.504161004000082,38.01121653900009],[12.576345248000052,38.07172272300005],[12.725352410000085,38.12592194200005],[12.760915561000047,38.180975653000075],[12.818369988000086,38.07794830900008],[12.901133660000085,38.02806224200009],[12.976111327443594,38.044203885572955],[13.06967207100007,38.091131903000075],[13.054698113000086,38.141831773000035],[13.10092207100007,38.19009023600006],[13.207204623000052,38.17609284100007],[13.31023196700005,38.21954987200007],[13.371918165000068,38.17279694200005],[13.391368035000085,38.103176174000055],[13.513519727000073,38.110541083000044],[13.547373894000089,38.05621979400007],[13.651133660000085,38.00096263200004],[13.79078209700009,37.97361888200004],[14.020518425000091,38.04938385600008],[14.106293165000068,38.02142975500004],[14.179581502313503,38.025692058954064],[14.27320397200009,38.01512278900009],[14.431895379000082,38.04938385600008],[14.511729363000086,38.04437897300005],[14.634613477000073,38.08148834800005],[14.73373457100007,38.15761953300006],[14.907074415000068,38.18768952000005],[15.087901238000086,38.128241278000075],[15.17741946700005,38.156317450000074],[15.245371941000087,38.217230536000045],[15.399668816000087,38.23257070500006],[15.512868686000047,38.29759349200009],[15.58375084700009,38.24042389500005],[15.500336134000065,38.08494700700004],[15.392588738000086,37.97614166900007],[15.259931751341302,37.807769214484786],[15.16382897200009,37.567694403000075],[15.096690300000091,37.49445221600007],[15.092535475095918,37.35878395738623],[15.11068769600007,37.32184479400007],[15.217458530000044,37.28497955900008],[15.183441602000073,37.207464911000045],[15.246592644000089,37.11823151200008],[15.303233269000089,37.101223049000055],[15.32943769600007,37.02773672100005],[15.174652540000068,36.94407786700009],[15.094004754000082,36.79954661700009],[15.134938998000052,36.68768952000005],[15.07357832100007,36.65912506700005],[15.000309863898337,36.70236784904205],[14.88217207100007,36.73065827000005],[14.780772332000083,36.69936758000006],[14.658946160000085,36.75381094000005],[14.487315300000091,36.79336172100005],[14.394541863000086,36.945013739000046],[14.334587469993071,37.000579302768934],[14.278819207000083,37.04401276200008],[14.12631269600007,37.11225006700005],[14.039303510263661,37.11447242763564],[13.894379102000073,37.100816148000035],[13.832692905000044,37.139553127000056],[13.683441602000073,37.18935781500005],[13.569183790000068,37.273504950000074],[13.452647332000083,37.298814195000034],[13.278005405000044,37.39370351800005],[13.174082879000082,37.48700592700004],[13.026377800000091,37.49323151200008],[12.974131707000083,37.55744049700007],[12.893890974058364,37.57328921541057]]]]},"properties":{"name":"Sicilia"}},{"type":"Feature","geometry":{"type":"MultiPolygon","coordinates":[[[[8.455902540000068,39.073553778000075],[8.437022332000083,38.96718984600005],[8.34929446700005,39.062160549000055],[8.385915561000047,39.10504791900007],[8.455902540000068,39.073553778000075]]],[[[8.305837436000047,39.19330475500004],[8.312022332000083,39.120306708000044],[8.224619988000086,39.15704987200007],[8.305837436000047,39.19330475500004]]],[[[8.610337184669124,38.954892976342286],[8.559580925000091,39.056708075000074],[8.504405144000089,39.062933661000045],[8.371755405000044,39.23061758000006],[8.426442905000044,39.283270575000074],[8.374034050000091,39.37885163000004],[8.398064080242118,39.44650217996972],[8.386892123000052,39.46979401200008],[8.463389519000089,39.57684967700004],[8.444021030000044,39.757025458000044],[8.51693769600007,39.70213450700004],[8.548520390112957,39.69791320183778],[8.504405144000089,39.72150299700007],[8.535492384000065,39.770819403000075],[8.555186394000089,39.85268789300005],[8.494151238000086,39.91242096600007],[8.398285352000073,39.90534088700008],[8.401377800000091,40.04987213700008],[8.49000084700009,40.10447825700004],[8.459646030000044,40.216009833000044],[8.462901238000086,40.314520575000074],[8.385996941000087,40.35179271000004],[8.392115538387502,40.41232060536619],[8.312022332000083,40.57807038000004],[8.216319207000083,40.57062409100007],[8.140635613000086,40.62518952000005],[8.192149285000085,40.69415924700007],[8.133799675000091,40.72890859600005],[8.233164910000085,40.91010163000004],[8.31023196700005,40.85065338700008],[8.520518425000091,40.82697174700007],[8.640961134000065,40.896470445000034],[8.81124993258403,40.940829680145],[9.02475019600007,41.12885163000004],[9.15756269600007,41.16889069200005],[9.171071811000047,41.24290599200003],[9.230642123000052,41.26264069200005],[9.285329623000052,41.195013739000046],[9.335215691000087,41.21165599200003],[9.546153191000087,41.12091705900008],[9.543142123000052,41.03693268400008],[9.58757571700005,40.995794989000046],[9.573252800000091,40.90639883000006],[9.683116082000083,40.86542389500005],[9.66179446700005,40.809027411000045],[9.74884406844199,40.660342456989746],[9.753184441000087,40.60529205900008],[9.826670769000089,40.519598700000074],[9.74935957100007,40.37726471600007],[9.712412957000083,40.366400458000044],[9.626149936000047,40.26308828300006],[9.627177059235587,40.22452323124122],[9.654633009000065,40.144598700000074],[9.732269727000073,40.08392975500004],[9.693369988000086,39.99290599200009],[9.69662519600007,39.85187409100007],[9.648936394000089,39.63898346600007],[9.646300043401228,39.54908846525127],[9.644867384000065,39.48395416900007],[9.603526238000086,39.326239325000074],[9.634613477000073,39.303168036000045],[9.567556186000047,39.23810455900008],[9.557790561000047,39.13971588700008],[9.450368686000047,39.12441640800006],[9.34506269600007,39.19643789300005],[9.252452019000089,39.22516510600008],[9.166026238000086,39.18707916900007],[9.078949415000068,39.21234772300005],[9.018321160000085,39.146144924000055],[9.044932488000086,39.05125560100004],[9.018321160000085,38.995306708000044],[8.894704623000052,38.90228913000004],[8.84148196700005,38.880560614000046],[8.71656334700009,38.93260325700004],[8.642832879000082,38.889960028000075],[8.610337184669124,38.954892976342286]]]]},"properties":{"name":"Sardegna"}},{"type":"Feature","geometry":{"type":"Polygon","coordinates":[[[12.465132967112709,42.38693218327364],[12.451516130564983,42.421030441801406],[12.34283936824221,42.49192521997293],[12.280217296191267,42.51040422497499],[12.23583252824858,42.64757952267678],[12.156555181876115,42.67542986629525],[12.033662110218188,42.646030450344995],[11.930302731585755,42.709102963131215],[11.973918455971955,42.75597064053261],[11.889016109206068,42.85038714814834],[11.931662005597047,42.8716807928343],[11.932170407638182,42.9272035572983],[11.977807616428322,43.04636127685143],[11.91775634457963,43.12243061558041],[11.95271090158684,43.1737987379214],[12.022961427028235,43.241884965718555],[12.158400884792968,43.262682085709685],[12.132626957967716,43.35725240167699],[12.037067872484329,43.416523643851065],[12.134077153437886,43.4888136860028],[12.13748291570397,43.531605435342556],[12.204807137139653,43.61682638582903],[12.285952159564488,43.59160177570135],[12.319943860121043,43.546184293770125],[12.51049074215399,43.51248922379864],[12.604687522910865,43.430344445739536],[12.758166532859207,43.46122701461502],[12.746499051490048,43.378829550443356],[12.851723772434127,43.206090223385104],[12.837443879231614,43.13248310611044],[12.895319858324797,43.08745014550777],[12.91313968364949,42.96342548210032],[13.048798868273138,42.91784320480002],[13.166726118315694,42.82451434446142],[13.22429448070568,42.847673524813274],[13.248947801899533,42.76778094323589],[13.194477585072491,42.73460223160765],[13.153850141470855,42.64509661231875],[12.9879785528679,42.6079957809805],[12.901977573606132,42.609599784802185],[12.880114779473502,42.56468767419676],[12.716110866922975,42.48960710498386],[12.665661646667672,42.44345353874979],[12.528354511951136,42.369504561286476],[12.465132967112709,42.38693218327364]]]},"properties":{"name":"Umbria"}}]}